start=new Date('2022-11-01T00:00:00.000Z').valueOf();
sats=[{"PERIOD":"95.437","CLASSIFICATION_TYPE":"U","COUNTRY_CODE":"US","REV_AT_EPOCH":"3823","TLE_LINE2":"2 51870  53.2153 108.2575 0001365  26.4768 333.6293 15.08842136 38231","OBJECT_NAME":"STARLINK-3591","OBJECT_ID":"2022-022U","MEAN_MOTION_DOT":"0.00001319","INCLINATION":"53.2153","LAUNCH_DATE":"2022-03-03","CENTER_NAME":"EARTH","MEAN_MOTION":"15.08842136","APOAPSIS":"540.683","OBJECT_TYPE":"PAYLOAD","ARG_OF_PERICENTER":"26.4768","SITE":"AFETR","TIME_SYSTEM":"UTC","MEAN_ANOMALY":"333.6293","FILE":"3639522","SEMIMAJOR_AXIS":"6917.874","MEAN_ELEMENT_THEORY":"SGP4","RA_OF_ASC_NODE":"108.2575","MEAN_MOTION_DDOT":"0.0000000000000","GP_ID":"216617078","EPOCH":"2022-10-31T17:08:11.643360","ECCENTRICITY":"0.00013650","NORAD_CAT_ID":"51870","DECAY_DATE":null,"RCS_SIZE":"LARGE","ELEMENT_SET_NO":"999","TLE_LINE1":"1 51870U 22022U   22304.71402365  .00001319  00000-0  10095-3 0  9990","EPHEMERIS_TYPE":"0","PERIAPSIS":"538.795","REF_FRAME":"TEME","BSTAR":"0.00010095000000"},{"PERIOD":"95.446","CLASSIFICATION_TYPE":"U","REV_AT_EPOCH":"3831","COUNTRY_CODE":"US","OBJECT_NAME":"STARLINK-3567","TLE_LINE2":"2 51871  53.2166 107.7146 0002522  64.7309 295.3944 15.08706734 38315","OBJECT_ID":"2022-022V","MEAN_MOTION_DOT":"0.00029759","INCLINATION":"53.2166","LAUNCH_DATE":"2022-03-03","MEAN_MOTION":"15.08706734","CENTER_NAME":"EARTH","APOAPSIS":"541.898","ARG_OF_PERICENTER":"64.7309","OBJECT_TYPE":"PAYLOAD","SITE":"AFETR","MEAN_ANOMALY":"295.3944","TIME_SYSTEM":"UTC","SEMIMAJOR_AXIS":"6918.288","FILE":"3639522","MEAN_ELEMENT_THEORY":"SGP4","RA_OF_ASC_NODE":"107.7146","GP_ID":"216618329","MEAN_MOTION_DDOT":"0.0000000000000","EPOCH":"2022-10-31T20:03:07.461792","ECCENTRICITY":"0.00025220","RCS_SIZE":"LARGE","DECAY_DATE":null,"NORAD_CAT_ID":"51871","ELEMENT_SET_NO":"999","TLE_LINE1":"1 51871U 22022V   22304.83550303  .00029759  00000-0  18868-2 0  9993","EPHEMERIS_TYPE":"0","PERIAPSIS":"538.408","BSTAR":"0.00188680000000","REF_FRAME":"TEME"},{"ARG_OF_PERICENTER":"63.2751","OBJECT_TYPE":"PAYLOAD","FILE":"3639522","SEMIMAJOR_AXIS":"6917.890","MEAN_ANOMALY":"296.8397","SITE":"AFETR","TIME_SYSTEM":"UTC","LAUNCH_DATE":"2022-03-03","APOAPSIS":"540.809","CENTER_NAME":"EARTH","MEAN_MOTION":"15.08837000","TLE_LINE2":"2 51872  53.2184 107.6832 0001524  63.2751 296.8397 15.08837000 38200","OBJECT_NAME":"STARLINK-3554","INCLINATION":"53.2184","MEAN_MOTION_DOT":"0.00000213","OBJECT_ID":"2022-022W","PERIOD":"95.438","COUNTRY_CODE":"US","REV_AT_EPOCH":"3820","CLASSIFICATION_TYPE":"U","TLE_LINE1":"1 51872U 22022W   22304.84283380  .00000213  00000-0  31460-4 0  9992","ELEMENT_SET_NO":"999","REF_FRAME":"TEME","BSTAR":"0.00003146000000","EPHEMERIS_TYPE":"0","PERIAPSIS":"538.700","ECCENTRICITY":"0.00015240","DECAY_DATE":null,"NORAD_CAT_ID":"51872","RCS_SIZE":"LARGE","RA_OF_ASC_NODE":"107.6832","EPOCH":"2022-10-31T20:13:40.840320","MEAN_MOTION_DDOT":"0.0000000000000","GP_ID":"216618080","MEAN_ELEMENT_THEORY":"SGP4"},{"RA_OF_ASC_NODE":"108.0440","EPOCH":"2022-10-31T18:11:47.210784","GP_ID":"216616828","MEAN_MOTION_DDOT":"0.0000000000000","MEAN_ELEMENT_THEORY":"SGP4","TLE_LINE1":"1 51873U 22022X   22304.75818531  .00001711  00000-0  12555-3 0  9992","ELEMENT_SET_NO":"999","BSTAR":"0.00012555000000","REF_FRAME":"TEME","EPHEMERIS_TYPE":"0","PERIAPSIS":"538.756","ECCENTRICITY":"0.00014360","NORAD_CAT_ID":"51873","DECAY_DATE":null,"RCS_SIZE":"LARGE","TLE_LINE2":"2 51873  53.2179 108.0440 0001436  50.7970 309.3150 15.08838832 38190","OBJECT_NAME":"STARLINK-3582","INCLINATION":"53.2179","MEAN_MOTION_DOT":"0.00001711","OBJECT_ID":"2022-022X","PERIOD":"95.438","COUNTRY_CODE":"US","REV_AT_EPOCH":"3819","CLASSIFICATION_TYPE":"U","ARG_OF_PERICENTER":"50.7970","OBJECT_TYPE":"PAYLOAD","FILE":"3639522","SEMIMAJOR_AXIS":"6917.884","SITE":"AFETR","TIME_SYSTEM":"UTC","MEAN_ANOMALY":"309.3150","LAUNCH_DATE":"2022-03-03","APOAPSIS":"540.742","CENTER_NAME":"EARTH","MEAN_MOTION":"15.08838832"},{"RA_OF_ASC_NODE":"107.7224","MEAN_MOTION_DDOT":"0.0000000000000","GP_ID":"216617578","EPOCH":"2022-10-31T19:57:46.226592","MEAN_ELEMENT_THEORY":"SGP4","ELEMENT_SET_NO":"999","TLE_LINE1":"1 51874U 22022Y   22304.83178503  .00001342  00000-0  10238-3 0  9996","EPHEMERIS_TYPE":"0","PERIAPSIS":"538.630","BSTAR":"0.00010238000000","REF_FRAME":"TEME","ECCENTRICITY":"0.00015900","NORAD_CAT_ID":"51874","DECAY_DATE":null,"RCS_SIZE":"LARGE","TLE_LINE2":"2 51874  53.2181 107.7224 0001590  62.2569 297.8585 15.08844925 38196","OBJECT_NAME":"STARLINK-3574","OBJECT_ID":"2022-022Y","INCLINATION":"53.2181","MEAN_MOTION_DOT":"0.00001342","PERIOD":"95.437","CLASSIFICATION_TYPE":"U","COUNTRY_CODE":"US","REV_AT_EPOCH":"3819","OBJECT_TYPE":"PAYLOAD","ARG_OF_PERICENTER":"62.2569","MEAN_ANOMALY":"297.8585","SITE":"AFETR","TIME_SYSTEM":"UTC","FILE":"3639522","SEMIMAJOR_AXIS":"6917.865","LAUNCH_DATE":"2022-03-03","CENTER_NAME":"EARTH","MEAN_MOTION":"15.08844925","APOAPSIS":"540.830"},{"TLE_LINE1":"1 51875U 22022Z   22304.75179518  .00003466  00000-0  23582-3 0  9990","ELEMENT_SET_NO":"999","BSTAR":"0.00023582000000","REF_FRAME":"TEME","PERIAPSIS":"538.523","EPHEMERIS_TYPE":"0","ECCENTRICITY":"0.00018180","RCS_SIZE":"LARGE","DECAY_DATE":null,"NORAD_CAT_ID":"51875","RA_OF_ASC_NODE":"108.0905","EPOCH":"2022-10-31T18:02:35.103552","MEAN_MOTION_DDOT":"0.0000000000000","GP_ID":"216617830","MEAN_ELEMENT_THEORY":"SGP4","OBJECT_TYPE":"PAYLOAD","ARG_OF_PERICENTER":"48.1302","FILE":"3639522","SEMIMAJOR_AXIS":"6917.916","TIME_SYSTEM":"UTC","SITE":"AFETR","MEAN_ANOMALY":"311.9845","LAUNCH_DATE":"2022-03-03","APOAPSIS":"541.039","MEAN_MOTION":"15.08828395","CENTER_NAME":"EARTH","OBJECT_NAME":"STARLINK-3585","TLE_LINE2":"2 51875  53.2191 108.0905 0001818  48.1302 311.9845 15.08828395 38199","INCLINATION":"53.2191","MEAN_MOTION_DOT":"0.00003466","OBJECT_ID":"2022-022Z","PERIOD":"95.438","REV_AT_EPOCH":"3819","COUNTRY_CODE":"US","CLASSIFICATION_TYPE":"U"},{"RCS_SIZE":"LARGE","NORAD_CAT_ID":"51876","DECAY_DATE":null,"ECCENTRICITY":"0.00019220","EPHEMERIS_TYPE":"0","PERIAPSIS":"538.448","BSTAR":"-0.00000835510000","REF_FRAME":"TEME","ELEMENT_SET_NO":"999","TLE_LINE1":"1 51876U 22022AA  22304.76187396 -.00000421  00000-0 -83551-5 0  9999","MEAN_ELEMENT_THEORY":"SGP4","GP_ID":"216618580","MEAN_MOTION_DDOT":"0.0000000000000","EPOCH":"2022-10-31T18:17:05.910144","RA_OF_ASC_NODE":"108.0266","MEAN_MOTION":"15.08829318","CENTER_NAME":"EARTH","APOAPSIS":"541.108","LAUNCH_DATE":"2022-03-03","TIME_SYSTEM":"UTC","SITE":"AFETR","MEAN_ANOMALY":"314.0979","SEMIMAJOR_AXIS":"6917.913","FILE":"3639522","OBJECT_TYPE":"PAYLOAD","ARG_OF_PERICENTER":"46.0171","CLASSIFICATION_TYPE":"U","REV_AT_EPOCH":"3819","COUNTRY_CODE":"US","PERIOD":"95.438","OBJECT_ID":"2022-022AA","MEAN_MOTION_DOT":"-0.00000421","INCLINATION":"53.2180","OBJECT_NAME":"STARLINK-3583","TLE_LINE2":"2 51876  53.2180 108.0266 0001922  46.0171 314.0979 15.08829318 38193"},{"OBJECT_ID":"2022-022AB","INCLINATION":"53.2163","MEAN_MOTION_DOT":"0.00002739","TLE_LINE2":"2 51877  53.2163  97.8140 0001697  58.0575 302.0582 15.08814907 38332","OBJECT_NAME":"STARLINK-3556","CLASSIFICATION_TYPE":"U","COUNTRY_CODE":"US","REV_AT_EPOCH":"3833","PERIOD":"95.439","SITE":"AFETR","TIME_SYSTEM":"UTC","MEAN_ANOMALY":"302.0582","FILE":"3639522","SEMIMAJOR_AXIS":"6917.957","ARG_OF_PERICENTER":"58.0575","OBJECT_TYPE":"PAYLOAD","CENTER_NAME":"EARTH","MEAN_MOTION":"15.08814907","APOAPSIS":"540.996","LAUNCH_DATE":"2022-03-03","MEAN_MOTION_DDOT":"0.0000000000000","GP_ID":"216617328","EPOCH":"2022-10-31T19:27:19.188000","RA_OF_ASC_NODE":"97.8140","MEAN_ELEMENT_THEORY":"SGP4","EPHEMERIS_TYPE":"0","PERIAPSIS":"538.648","BSTAR":"0.00019022000000","REF_FRAME":"TEME","ELEMENT_SET_NO":"999","TLE_LINE1":"1 51877U 22022AB  22304.81063875  .00002739  00000-0  19022-3 0  9993","DECAY_DATE":null,"NORAD_CAT_ID":"51877","RCS_SIZE":"LARGE","ECCENTRICITY":"0.00016970"},{"EPOCH":"2022-10-31T19:41:52.553760","MEAN_MOTION_DDOT":"0.0000000000000","GP_ID":"216617079","RA_OF_ASC_NODE":"107.7780","MEAN_ELEMENT_THEORY":"SGP4","BSTAR":"0.00001548700000","REF_FRAME":"TEME","PERIAPSIS":"538.614","EPHEMERIS_TYPE":"0","TLE_LINE1":"1 51878U 22022AC  22304.82074715 -.00000042  00000-0  15487-4 0  9998","ELEMENT_SET_NO":"999","NORAD_CAT_ID":"51878","DECAY_DATE":null,"RCS_SIZE":"LARGE","ECCENTRICITY":"0.00016420","MEAN_MOTION_DOT":"-0.00000042","INCLINATION":"53.2190","OBJECT_ID":"2022-022AC","TLE_LINE2":"2 51878  53.2190 107.7780 0001642  47.0690 313.0440 15.08838659 38201","OBJECT_NAME":"STARLINK-3575","COUNTRY_CODE":"US","REV_AT_EPOCH":"3820","CLASSIFICATION_TYPE":"U","PERIOD":"95.438","FILE":"3639522","SEMIMAJOR_AXIS":"6917.884","SITE":"AFETR","TIME_SYSTEM":"UTC","MEAN_ANOMALY":"313.0440","ARG_OF_PERICENTER":"47.0690","OBJECT_TYPE":"PAYLOAD","APOAPSIS":"540.885","CENTER_NAME":"EARTH","MEAN_MOTION":"15.08838659","LAUNCH_DATE":"2022-03-03"},{"MEAN_ELEMENT_THEORY":"SGP4","EPOCH":"2022-10-31T17:41:19.544928","GP_ID":"216618330","MEAN_MOTION_DDOT":"0.0000000000000","RA_OF_ASC_NODE":"98.1453","DECAY_DATE":null,"NORAD_CAT_ID":"51879","RCS_SIZE":"LARGE","ECCENTRICITY":"0.00015670","REF_FRAME":"TEME","BSTAR":"0.00002537800000","EPHEMERIS_TYPE":"0","PERIAPSIS":"538.680","TLE_LINE1":"1 51879U 22022AD  22304.73703177  .00000116  00000-0  25378-4 0  9991","ELEMENT_SET_NO":"999","COUNTRY_CODE":"US","REV_AT_EPOCH":"3832","CLASSIFICATION_TYPE":"U","PERIOD":"95.438","MEAN_MOTION_DOT":"0.00000116","INCLINATION":"53.2170","OBJECT_ID":"2022-022AD","TLE_LINE2":"2 51879  53.2170  98.1453 0001567  52.7894 307.3241 15.08834048 38321","OBJECT_NAME":"STARLINK-3572","APOAPSIS":"540.848","CENTER_NAME":"EARTH","MEAN_MOTION":"15.08834048","LAUNCH_DATE":"2022-03-03","SEMIMAJOR_AXIS":"6917.899","FILE":"3639522","SITE":"AFETR","TIME_SYSTEM":"UTC","MEAN_ANOMALY":"307.3241","OBJECT_TYPE":"PAYLOAD","ARG_OF_PERICENTER":"52.7894"}];
